GLOBALSTAR M001         
1 25162U 98008A   24145.12794225 -.00000080  00000+0  13151-3 0  9991
2 25162  52.0060  25.5874 0001947 125.7772  39.8944 12.38184858195510
GLOBALSTAR M004         
1 25163U 98008B   24145.23184700 -.00000057  00000+0  25838-3 0  9994
2 25163  51.9971 160.7303 0003038 146.7742 293.1266 12.63360722212529
GLOBALSTAR M002         
1 25164U 98008C   24145.35677800 -.00000085  00000+0 -17245-3 0  9991
2 25164  51.9983 135.1239 0001095 155.0442 205.0431 11.61503217138885
GLOBALSTAR M003         
1 25165U 98008D   24145.47374105  .00000052  00000+0  15139-2 0  9998
2 25165  51.9841 165.1110 0008043 230.7369 277.6106 12.12004653186085
GLOBALSTAR M014         
1 25306U 98023A   24145.20322723 -.00000075  00000+0  49156-4 0  9996
2 25306  51.9854  66.9095 0001353  20.1629 129.0039 11.65467877145812
GLOBALSTAR M006         
1 25307U 98023B   24145.34760514 -.00000081  00000+0 -99312-4 0  9993
2 25307  51.9925 104.4853 0003506 120.6002  47.8318 11.58163928171778
GLOBALSTAR M015         
1 25308U 98023C   24145.40419733 -.00000044  00000+0  67922-3 0  9994
2 25308  51.9790 184.9999 0012507 106.4086 353.9028 11.48852505149395
GLOBALSTAR M008         
1 25309U 98023D   24145.61083786 -.00000049  00000+0  37194-3 0  9996
2 25309  51.9967 244.6115 0002831  87.0593  19.8475 12.36043746189791
